[p2024q1(panstarrs)]
absolute_magnitude             = 17
discovery                      = 2024-08-27
iau_designation                = P/2024 Q1
name                           = P/2024 Q1 (PANSTARRS)
orbit_ArgOfPericenter          = 284.4451
orbit_AscendingNode            = 23.1351
orbit_Eccentricity             = 0.534848
orbit_Epoch                    = 2460749.5
orbit_Inclination              = 5.0144
orbit_PericenterDistance       = 1.636776
orbit_TimeAtPericenter         = 2460476.0762
orbit_good                     = 1000
ref                            = MPEC 2024-RQ6
slope_parameter                = 4
type                           = comet

[p2024r1(panstarrs)]
absolute_magnitude             = 18
discovery                      = 2024-09-01
iau_designation                = P/2024 R1
name                           = P/2024 R1 (PANSTARRS)
orbit_ArgOfPericenter          = 230.6202
orbit_AscendingNode            = 84.9817
orbit_Eccentricity             = 0.493018
orbit_Epoch                    = 2460749.5
orbit_Inclination              = 12.7365
orbit_PericenterDistance       = 1.750186
orbit_TimeAtPericenter         = 2460477.2364
orbit_good                     = 1000
ref                            = MPEC 2024-RQ6
slope_parameter                = 4
type                           = comet

[p2024r2(panstarrs)]
absolute_magnitude             = 15.5
discovery                      = 2024-09-03
iau_designation                = P/2024 R2
name                           = P/2024 R2 (PANSTARRS)
orbit_ArgOfPericenter          = 203.9696
orbit_AscendingNode            = 193.0388
orbit_Eccentricity             = 0.268644
orbit_Epoch                    = 2460749.5
orbit_Inclination              = 15.116
orbit_PericenterDistance       = 2.303602
orbit_TimeAtPericenter         = 2460585.3936
orbit_good                     = 1000
ref                            = MPEC 2024-RK2
slope_parameter                = 4
type                           = comet

[p2024r3(panstarrs)]
absolute_magnitude             = 15
discovery                      = 2024-09-08
iau_designation                = P/2024 R3
name                           = P/2024 R3 (PANSTARRS)
orbit_ArgOfPericenter          = 309.1946
orbit_AscendingNode            = 33.2738
orbit_Eccentricity             = 0.266941
orbit_Epoch                    = 2460749.5
orbit_Inclination              = 14.7262
orbit_PericenterDistance       = 2.345468
orbit_TimeAtPericenter         = 2460438.557
orbit_good                     = 1000
ref                            = MPEC 2024-S11
slope_parameter                = 4
type                           = comet

[p2024s2(rankin)]
absolute_magnitude             = 15
discoverer                     = D. Rankin
discovery                      = 2024-09-30
iau_designation                = P/2024 S2
name                           = P/2024 S2 (Rankin)
orbit_ArgOfPericenter          = 49.1828
orbit_AscendingNode            = 8.3463
orbit_Eccentricity             = 0.593757
orbit_Epoch                    = 2460749.5
orbit_Inclination              = 7.525
orbit_PericenterDistance       = 2.047915
orbit_TimeAtPericenter         = 2460569.8552
orbit_good                     = 1000
ref                            = MPEC 2024-X74
slope_parameter                = 4
type                           = comet

[p2024t1(rankin)]
absolute_magnitude             = 14.5
discoverer                     = D. Rankin
discovery                      = 2024-10-02
iau_designation                = P/2024 T1
name                           = P/2024 T1 (Rankin)
orbit_ArgOfPericenter          = 164.8713
orbit_AscendingNode            = 279.7103
orbit_Eccentricity             = 0.653605
orbit_Epoch                    = 2460749.5
orbit_Inclination              = 17.62
orbit_PericenterDistance       = 2.28703
orbit_TimeAtPericenter         = 2460583.9187
orbit_good                     = 1000
ref                            = MPEC 2024-VJ2
slope_parameter                = 4
type                           = comet

[p2024t2(rankin)]
absolute_magnitude             = 16
discoverer                     = D. Rankin
discovery                      = 2024-10-04
iau_designation                = P/2024 T2
name                           = P/2024 T2 (Rankin)
orbit_ArgOfPericenter          = 343.8294
orbit_AscendingNode            = 113.0609
orbit_Eccentricity             = 0.680544
orbit_Epoch                    = 2460749.5
orbit_Inclination              = 12.9288
orbit_PericenterDistance       = 1.972295
orbit_TimeAtPericenter         = 2460652.8393
orbit_good                     = 1000
ref                            = MPEC 2024-X74
slope_parameter                = 4
type                           = comet

[p2024x3(panstarrs)]
absolute_magnitude             = 14.6
discovery                      = 2024-12-08
iau_designation                = P/2024 X3
name                           = P/2024 X3 (PANSTARRS)
orbit_ArgOfPericenter          = 352.934
orbit_AscendingNode            = 113.3649
orbit_Eccentricity             = 0.626403
orbit_Epoch                    = 2460749.5
orbit_Inclination              = 2.9724
orbit_PericenterDistance       = 2.61405
orbit_TimeAtPericenter         = 2460559.2558
orbit_good                     = 1000
ref                            = MPEC 2025-EG2
slope_parameter                = 4
type                           = comet

[p2025a2(panstarrs)]
absolute_magnitude             = 13.2
discovery                      = 2025-01-07
iau_designation                = P/2025 A2
name                           = P/2025 A2 (PANSTARRS)
orbit_ArgOfPericenter          = 278.0606
orbit_AscendingNode            = 189.321
orbit_Eccentricity             = 0.322245
orbit_Epoch                    = 2460749.5
orbit_Inclination              = 20.7334
orbit_PericenterDistance       = 3.446426
orbit_TimeAtPericenter         = 2460589.2591
orbit_good                     = 1000
ref                            = MPEC 2025-EG2
slope_parameter                = 4
type                           = comet

[p2025c1(atlas)]
absolute_magnitude             = 10.8
discovery                      = 2025-02-02
iau_designation                = P/2025 C1
name                           = P/2025 C1 (ATLAS)
orbit_ArgOfPericenter          = 187.1576
orbit_AscendingNode            = 9.1049
orbit_Eccentricity             = 0.343312
orbit_Epoch                    = 2460749.5
orbit_Inclination              = 7.5198
orbit_PericenterDistance       = 2.74585
orbit_TimeAtPericenter         = 2460714.4966
orbit_good                     = 1000
ref                            = MPEC 2025-EG2
slope_parameter                = 4
type                           = comet

